{
  "type": "FeatureCollection",
  "features": [
    {
      "type": "Feature",
      "properties": {
        "norad_id": 34036,
        "name": "COSMOS 2251 DEB",
        "group": "cosmos-2251-debris",
        "lat": 60.99774966027847,
        "lon": -71.37678494711665,
        "alt_km": 570.5758395483263,
        "timestamp": "2025-12-17T10:52:54.745865+00:00",
        "meta_object_name": "COSMOS 2251 DEB",
        "meta_object_id": "1993-036HX",
        "meta_epoch": "2025-12-15T11:48:16.297920",
        "meta_mean_motion": 14.95207408,
        "meta_eccentricity": 0.00117703,
        "meta_inclination": 74.0192,
        "meta_ra_of_asc_node": 143.7108,
        "meta_arg_of_pericenter": 175.2274,
        "meta_mean_anomaly": 184.9024,
        "meta_ephemeris_type": 0,
        "meta_classification_type": "U",
        "meta_norad_cat_id": 34036,
        "meta_element_set_no": 999,
        "meta_rev_at_epoch": 88611,
        "meta_bstar": 0.0024574884,
        "meta_mean_motion_dot": 0.00027124,
        "meta_mean_motion_ddot": 0,
        "tle_line1": "1 34036U 93036HX  25349.49185530  .00027124  00000+0  24575-2 0  9995",
        "tle_line2": "2 34036  74.0192 143.7108 0011770 175.2274 184.9024 14.95207408886111"
      },
      "geometry": {
        "type": "Point",
        "coordinates": [
          -71.37678494711665,
          60.99774966027847
        ]
      }
    },
    {
      "type": "Feature",
      "properties": {
        "norad_id": 34037,
        "name": "COSMOS 2251 DEB",
        "group": "cosmos-2251-debris",
        "lat": -46.57002885103641,
        "lon": -120.6016083199191,
        "alt_km": 810.3030741169705,
        "timestamp": "2025-12-17T10:52:54.745875+00:00",
        "meta_object_name": "COSMOS 2251 DEB",
        "meta_object_id": "1993-036HY",
        "meta_epoch": "2025-12-16T13:44:25.067904",
        "meta_mean_motion": 14.34675211,
        "meta_eccentricity": 0.00518949,
        "meta_inclination": 74.0515,
        "meta_ra_of_asc_node": 43.4277,
        "meta_arg_of_pericenter": 92.2689,
        "meta_mean_anomaly": 268.4407,
        "meta_ephemeris_type": 0,
        "meta_classification_type": "U",
        "meta_norad_cat_id": 34037,
        "meta_element_set_no": 999,
        "meta_rev_at_epoch": 87772,
        "meta_bstar": 0.00039600013,
        "meta_mean_motion_dot": 1.112e-05,
        "meta_mean_motion_ddot": 0,
        "tle_line1": "1 34037U 93036HY  25350.57251236  .00001112  00000+0  39600-3 0  9999",
        "tle_line2": "2 34037  74.0515  43.4277 0051894  92.2689 268.4407 14.34675211877727"
      },
      "geometry": {
        "type": "Point",
        "coordinates": [
          -120.6016083199191,
          -46.57002885103641
        ]
      }
    },
    {
      "type": "Feature",
      "properties": {
        "norad_id": 34040,
        "name": "COSMOS 2251 DEB",
        "group": "cosmos-2251-debris",
        "lat": 70.15365916143034,
        "lon": 110.94256413985259,
        "alt_km": 894.7659073924251,
        "timestamp": "2025-12-17T10:52:54.745885+00:00",
        "meta_object_name": "COSMOS 2251 DEB",
        "meta_object_id": "1993-036JB",
        "meta_epoch": "2025-12-16T13:28:05.115648",
        "meta_mean_motion": 13.68379952,
        "meta_eccentricity": 0.03431488,
        "meta_inclination": 73.9559,
        "meta_ra_of_asc_node": 59.5488,
        "meta_arg_of_pericenter": 12.1387,
        "meta_mean_anomaly": 348.7735,
        "meta_ephemeris_type": 0,
        "meta_classification_type": "U",
        "meta_norad_cat_id": 34040,
        "meta_element_set_no": 999,
        "meta_rev_at_epoch": 83652,
        "meta_bstar": 0.00049113858,
        "meta_mean_motion_dot": 6.11e-06,
        "meta_mean_motion_ddot": 0,
        "tle_line1": "1 34040U 93036JB  25350.56117032  .00000611  00000+0  49114-3 0  9991",
        "tle_line2": "2 34040  73.9559  59.5488 0343148  12.1387 348.7735 13.68379952836529"
      },
      "geometry": {
        "type": "Point",
        "coordinates": [
          110.94256413985259,
          70.15365916143034
        ]
      }
    },
    {
      "type": "Feature",
      "properties": {
        "norad_id": 34045,
        "name": "COSMOS 2251 DEB",
        "group": "cosmos-2251-debris",
        "lat": -72.50468603077391,
        "lon": -172.57220783147716,
        "alt_km": 794.7669218750298,
        "timestamp": "2025-12-17T10:52:54.745896+00:00",
        "meta_object_name": "COSMOS 2251 DEB",
        "meta_object_id": "1993-036JG",
        "meta_epoch": "2025-12-16T23:56:18.932640",
        "meta_mean_motion": 14.340713,
        "meta_eccentricity": 0.00258373,
        "meta_inclination": 74.0393,
        "meta_ra_of_asc_node": 303.0408,
        "meta_arg_of_pericenter": 25.311,
        "meta_mean_anomaly": 44.6151,
        "meta_ephemeris_type": 0,
        "meta_classification_type": "U",
        "meta_norad_cat_id": 34045,
        "meta_element_set_no": 999,
        "meta_rev_at_epoch": 88094,
        "meta_bstar": 8.688128e-05,
        "meta_mean_motion_dot": 2.18e-06,
        "meta_mean_motion_ddot": 0,
        "tle_line1": "1 34045U 93036JG  25350.99744135  .00000218  00000+0  86881-4 0  9999",
        "tle_line2": "2 34045  74.0393 303.0408 0025837  25.3110  44.6151 14.34071300880942"
      },
      "geometry": {
        "type": "Point",
        "coordinates": [
          -172.57220783147716,
          -72.50468603077391
        ]
      }
    },
    {
      "type": "Feature",
      "properties": {
        "norad_id": 34046,
        "name": "COSMOS 2251 DEB",
        "group": "cosmos-2251-debris",
        "lat": 69.66122325209632,
        "lon": 131.13388391282322,
        "alt_km": 679.8447829149845,
        "timestamp": "2025-12-17T10:52:54.745906+00:00",
        "meta_object_name": "COSMOS 2251 DEB",
        "meta_object_id": "1993-036JH",
        "meta_epoch": "2025-12-16T11:51:57.702240",
        "meta_mean_motion": 14.46503775,
        "meta_eccentricity": 0.007444,
        "meta_inclination": 74.0395,
        "meta_ra_of_asc_node": 3.4625,
        "meta_arg_of_pericenter": 85.7385,
        "meta_mean_anomaly": 64.8662,
        "meta_ephemeris_type": 0,
        "meta_classification_type": "U",
        "meta_norad_cat_id": 34046,
        "meta_element_set_no": 999,
        "meta_rev_at_epoch": 87880,
        "meta_bstar": 0.00080678373,
        "meta_mean_motion_dot": 2.98e-05,
        "meta_mean_motion_ddot": 0,
        "tle_line1": "1 34046U 93036JH  25350.49441785  .00002980  00000+0  80678-3 0  9995",
        "tle_line2": "2 34046  74.0395   3.4625 0074440  85.7385  64.8662 14.46503775878807"
      },
      "geometry": {
        "type": "Point",
        "coordinates": [
          131.13388391282322,
          69.66122325209632
        ]
      }
    },
    {
      "type": "Feature",
      "properties": {
        "norad_id": 34050,
        "name": "COSMOS 2251 DEB",
        "group": "cosmos-2251-debris",
        "lat": -26.120158576799547,
        "lon": -169.99277169233994,
        "alt_km": 1034.317414278472,
        "timestamp": "2025-12-17T10:52:54.745917+00:00",
        "meta_object_name": "COSMOS 2251 DEB",
        "meta_object_id": "1993-036JM",
        "meta_epoch": "2025-12-16T19:16:52.757760",
        "meta_mean_motion": 13.96189897,
        "meta_eccentricity": 0.02146005,
        "meta_inclination": 74.0883,
        "meta_ra_of_asc_node": 3.0815,
        "meta_arg_of_pericenter": 66.354,
        "meta_mean_anomaly": 113.3266,
        "meta_ephemeris_type": 0,
        "meta_classification_type": "U",
        "meta_norad_cat_id": 34050,
        "meta_element_set_no": 999,
        "meta_rev_at_epoch": 85488,
        "meta_bstar": 0.00058102541,
        "meta_mean_motion_dot": 9.47e-06,
        "meta_mean_motion_ddot": 0,
        "tle_line1": "1 34050U 93036JM  25350.80338840  .00000947  00000+0  58103-3 0  9991",
        "tle_line2": "2 34050  74.0883   3.0815 0214600  66.3540 113.3266 13.96189897854884"
      },
      "geometry": {
        "type": "Point",
        "coordinates": [
          -169.99277169233994,
          -26.120158576799547
        ]
      }
    },
    {
      "type": "Feature",
      "properties": {
        "norad_id": 34053,
        "name": "COSMOS 2251 DEB",
        "group": "cosmos-2251-debris",
        "lat": 67.34120226720795,
        "lon": 10.598928269716966,
        "alt_km": 1020.8661932510413,
        "timestamp": "2025-12-17T10:52:54.745927+00:00",
        "meta_object_name": "COSMOS 2251 DEB",
        "meta_object_id": "1993-036JQ",
        "meta_epoch": "2025-12-16T18:22:31.272672",
        "meta_mean_motion": 13.49167627,
        "meta_eccentricity": 0.04224557,
        "meta_inclination": 73.8436,
        "meta_ra_of_asc_node": 235.684,
        "meta_arg_of_pericenter": 23.5689,
        "meta_mean_anomaly": 338.4157,
        "meta_ephemeris_type": 0,
        "meta_classification_type": "U",
        "meta_norad_cat_id": 34053,
        "meta_element_set_no": 999,
        "meta_rev_at_epoch": 82738,
        "meta_bstar": 0.00064150876,
        "meta_mean_motion_dot": 6.78e-06,
        "meta_mean_motion_ddot": 0,
        "tle_line1": "1 34053U 93036JQ  25350.76563973  .00000678  00000+0  64151-3 0  9997",
        "tle_line2": "2 34053  73.8436 235.6840 0422455  23.5689 338.4157 13.49167627827386"
      },
      "geometry": {
        "type": "Point",
        "coordinates": [
          10.598928269716966,
          67.34120226720795
        ]
      }
    }
  ]
}